{
  "norad_id": 51774,
  "name": "STARLINK-3629",
  "history": [
    {
      "epoch": "2026-03-28T17:43:23.513376Z",
      "apogee_km": 540.5891934057245,
      "perigee_km": 538.8236214112858,
      "latitude_deg": -5.445195076792001e-05,
      "longitude_deg": 161.60478536410724,
      "height_km": 540.6883675319413,
      "semi_major_axis_km": 6917.843407408504,
      "eccentricity": 0.00012761,
      "inclination_deg": 53.2163,
      "raan_deg": 253.6074,
      "arg_perigee_deg": 95.6059,
      "mean_anomaly_deg": 264.5078,
      "mean_motion_rev_day": 15.08852099
    },
    {
      "epoch": "2026-03-30T03:06:29.447136Z",
      "apogee_km": 540.5262720563915,
      "perigee_km": 538.9199449391981,
      "latitude_deg": -8.960307450583536e-06,
      "longitude_deg": 13.215323270058173,
      "height_km": 540.6436412321996,
      "semi_major_axis_km": 6917.8601084977945,
      "eccentricity": 0.0001161,
      "inclination_deg": 53.2168,
      "raan_deg": 247.3637,
      "arg_perigee_deg": 91.7561,
      "mean_anomaly_deg": 268.3564,
      "mean_motion_rev_day": 15.08846635
    },
    {
      "epoch": "2026-03-30T11:03:25.248960Z",
      "apogee_km": 540.5518266469571,
      "perigee_km": 538.9311060798573,
      "latitude_deg": 5.565708801546131e-05,
      "longitude_deg": -107.83068290787844,
      "height_km": 540.6604426911422,
      "semi_major_axis_km": 6917.878466363407,
      "eccentricity": 0.00011714,
      "inclination_deg": 53.2169,
      "raan_deg": 245.8766,
      "arg_perigee_deg": 91.6315,
      "mean_anomaly_deg": 268.4812,
      "mean_motion_rev_day": 15.08840629
    },
    {
      "epoch": "2026-03-30T17:24:57.593376Z",
      "apogee_km": 540.5644017816712,
      "perigee_km": 538.9020375678829,
      "latitude_deg": 1.804737328367015e-05,
      "longitude_deg": 155.33406681784246,
      "height_km": 540.6498182509184,
      "semi_major_axis_km": 6917.870219674776,
      "eccentricity": 0.00012015,
      "inclination_deg": 53.2173,
      "raan_deg": 244.6873,
      "arg_perigee_deg": 91.4261,
      "mean_anomaly_deg": 268.6869,
      "mean_motion_rev_day": 15.08843327
    },
    {
      "epoch": "2026-03-31T18:51:08.194464Z",
      "apogee_km": 540.5899522333202,
      "perigee_km": 538.9104275813543,
      "latitude_deg": -5.691847561763453e-06,
      "longitude_deg": 127.98724856560933,
      "height_km": 540.6067787612715,
      "semi_major_axis_km": 6917.8871899073365,
      "eccentricity": 0.00012139,
      "inclination_deg": 53.2174,
      "raan_deg": 239.9293,
      "arg_perigee_deg": 87.3162,
      "mean_anomaly_deg": 272.7969,
      "mean_motion_rev_day": 15.08837775
    },
    {
      "epoch": "2026-04-02T18:32:41.709408Z",
      "apogee_km": 540.6117139771341,
      "perigee_km": 538.8323022830627,
      "latitude_deg": -8.484744400102217e-06,
      "longitude_deg": 121.7174357110664,
      "height_km": 540.5538301749119,
      "semi_major_axis_km": 6917.859008130098,
      "eccentricity": 0.00012861,
      "inclination_deg": 53.2168,
      "raan_deg": 231.0078,
      "arg_perigee_deg": 85.8793,
      "mean_anomaly_deg": 274.2346,
      "mean_motion_rev_day": 15.08846995
    },
    {
      "epoch": "2026-04-03T18:23:29.093280Z",
      "apogee_km": 540.7286388352823,
      "perigee_km": 538.7819439444847,
      "latitude_deg": 2.4235461014545418e-05,
      "longitude_deg": 118.57758656925209,
      "height_km": 540.7399177025627,
      "semi_major_axis_km": 6917.892291389883,
      "eccentricity": 0.0001407,
      "inclination_deg": 53.2168,
      "raan_deg": 226.5447,
      "arg_perigee_deg": 95.2491,
      "mean_anomaly_deg": 264.8662,
      "mean_motion_rev_day": 15.08836106
    },
    {
      "epoch": "2026-04-05T13:18:53.628768Z",
      "apogee_km": 540.8636740064157,
      "perigee_km": 538.5918472190315,
      "latitude_deg": -2.7064483087366298e-06,
      "longitude_deg": -175.06577139520746,
      "height_km": 541.0119043199362,
      "semi_major_axis_km": 6917.864760612723,
      "eccentricity": 0.0001642,
      "inclination_deg": 53.2173,
      "raan_deg": 218.5164,
      "arg_perigee_deg": 110.0109,
      "mean_anomaly_deg": 250.106,
      "mean_motion_rev_day": 15.08845113
    },
    {
      "epoch": "2026-04-05T13:18:53.629632Z",
      "apogee_km": 540.8636740064157,
      "perigee_km": 538.5918472190315,
      "latitude_deg": -2.7064486358793997e-06,
      "longitude_deg": -175.06577500506606,
      "height_km": 541.0119043199393,
      "semi_major_axis_km": 6917.864760612723,
      "eccentricity": 0.0001642,
      "inclination_deg": 53.2173,
      "raan_deg": 218.5164,
      "arg_perigee_deg": 110.0109,
      "mean_anomaly_deg": 250.106,
      "mean_motion_rev_day": 15.08845113
    },
    {
      "epoch": "2026-04-07T11:25:06.337056Z",
      "apogee_km": 540.967342334814,
      "perigee_km": 538.627420209692,
      "latitude_deg": -3.692706614848951e-05,
      "longitude_deg": -157.1310574130344,
      "height_km": 539.7011765431373,
      "semi_major_axis_km": 6917.934381272253,
      "eccentricity": 0.00016912,
      "inclination_deg": 53.2182,
      "raan_deg": 209.8975,
      "arg_perigee_deg": 31.9576,
      "mean_anomaly_deg": 328.1518,
      "mean_motion_rev_day": 15.08822336
    },
    {
      "epoch": "2026-04-08T14:26:39.251616Z",
      "apogee_km": 540.7191320092988,
      "perigee_km": 538.8139413752942,
      "latitude_deg": 3.448993300054778e-05,
      "longitude_deg": 151.31313772949025,
      "height_km": 540.539513166797,
      "semi_major_axis_km": 6917.903536692296,
      "eccentricity": 0.0001377,
      "inclination_deg": 53.2172,
      "raan_deg": 204.8387,
      "arg_perigee_deg": 82.5997,
      "mean_anomaly_deg": 277.5152,
      "mean_motion_rev_day": 15.08832427
    },
    {
      "epoch": "2026-04-09T19:03:35.282304Z",
      "apogee_km": 540.7443828048827,
      "perigee_km": 538.7879997823848,
      "latitude_deg": 6.816978745178357e-05,
      "longitude_deg": 75.55339857399896,
      "height_km": 540.6564086950524,
      "semi_major_axis_km": 6917.903191293633,
      "eccentricity": 0.0001414,
      "inclination_deg": 53.2172,
      "raan_deg": 199.4876,
      "arg_perigee_deg": 89.6849,
      "mean_anomaly_deg": 270.4306,
      "mean_motion_rev_day": 15.0883254
    },
    {
      "epoch": "2026-04-10T12:32:50.028000Z",
      "apogee_km": 540.7536878240644,
      "perigee_km": 538.7558006883237,
      "latitude_deg": 3.418131437189189e-05,
      "longitude_deg": 169.2530478527132,
      "height_km": 540.6664893210129,
      "semi_major_axis_km": 6917.891744256194,
      "eccentricity": 0.0001444,
      "inclination_deg": 53.2169,
      "raan_deg": 196.2169,
      "arg_perigee_deg": 90.9301,
      "mean_anomaly_deg": 269.1857,
      "mean_motion_rev_day": 15.08836285
    },
    {
      "epoch": "2026-04-11T15:34:20.813664Z",
      "apogee_km": 540.5756201814447,
      "perigee_km": 538.7202702591367,
      "latitude_deg": -4.171079094308982e-05,
      "longitude_deg": 117.70822940084041,
      "height_km": 540.4885106561829,
      "semi_major_axis_km": 6917.784945220291,
      "eccentricity": 0.0001341,
      "inclination_deg": 53.2167,
      "raan_deg": 191.1603,
      "arg_perigee_deg": 86.5939,
      "mean_anomaly_deg": 273.5206,
      "mean_motion_rev_day": 15.08871226
    },
    {
      "epoch": "2026-04-12T10:39:00.814752Z",
      "apogee_km": 540.734671623216,
      "perigee_km": 538.81910126806,
      "latitude_deg": 2.931432880492321e-06,
      "longitude_deg": -172.81280588432375,
      "height_km": 541.0914261828615,
      "semi_major_axis_km": 6917.913886445638,
      "eccentricity": 0.00013845,
      "inclination_deg": 53.2192,
      "raan_deg": 187.5894,
      "arg_perigee_deg": 115.9089,
      "mean_anomaly_deg": 244.2046,
      "mean_motion_rev_day": 15.08829041
    },
    {
      "epoch": "2026-04-14T11:55:58.587168Z",
      "apogee_km": 540.723360344542,
      "perigee_km": 538.8335242040203,
      "latitude_deg": 3.648515525024376e-06,
      "longitude_deg": 156.7085081365156,
      "height_km": 540.5373643667123,
      "semi_major_axis_km": 6917.91544227428,
      "eccentricity": 0.00013659,
      "inclination_deg": 53.2166,
      "raan_deg": 178.3754,
      "arg_perigee_deg": 81.6814,
      "mean_anomaly_deg": 278.4333,
      "mean_motion_rev_day": 15.08828532
    },
    {
      "epoch": "2026-04-15T11:46:45.625440Z",
      "apogee_km": 540.6854341516009,
      "perigee_km": 538.8209243904848,
      "latitude_deg": -3.0433962824416496e-05,
      "longitude_deg": 153.57215490671678,
      "height_km": 540.4624868733645,
      "semi_major_axis_km": 6917.890179271043,
      "eccentricity": 0.00013476,
      "inclination_deg": 53.2166,
      "raan_deg": 173.9144,
      "arg_perigee_deg": 78.4678,
      "mean_anomaly_deg": 281.6465,
      "mean_motion_rev_day": 15.08836797
    },
    {
      "epoch": "2026-04-16T13:12:56.280096Z",
      "apogee_km": 540.6875555064753,
      "perigee_km": 538.8252586012959,
      "latitude_deg": 7.061174243422987e-06,
      "longitude_deg": 126.2254590141053,
      "height_km": 540.4578493344748,
      "semi_major_axis_km": 6917.893407053885,
      "eccentricity": 0.0001346,
      "inclination_deg": 53.2162,
      "raan_deg": 169.1567,
      "arg_perigee_deg": 77.9622,
      "mean_anomaly_deg": 282.1521,
      "mean_motion_rev_day": 15.08835741
    },
    {
      "epoch": "2026-04-17T21:00:38.864448Z",
      "apogee_km": 540.6888434912016,
      "perigee_km": 538.8128506648318,
      "latitude_deg": 7.027531136624525e-05,
      "longitude_deg": 2.0438921603127245,
      "height_km": 540.4845977792045,
      "semi_major_axis_km": 6917.887847078016,
      "eccentricity": 0.00013559,
      "inclination_deg": 53.2173,
      "raan_deg": 163.2083,
      "arg_perigee_deg": 80.0565,
      "mean_anomaly_deg": 280.0581,
      "mean_motion_rev_day": 15.0883756
    }
  ]
}